[{"CCSDS_OMM_VERS":"2.0","COMMENT":"GENERATED VIA SPACE-TRACK.ORG API","CREATION_DATE":"2020-01-12T22:20:15","ORIGINATOR":"18 SPCS","OBJECT_NAME":"ONEWEB-0007","OBJECT_ID":"2019-010D","CENTER_NAME":"EARTH","REF_FRAME":"TEME","TIME_SYSTEM":"UTC","MEAN_ELEMENT_THEORY":"SGP4","EPOCH":"2020-01-12T19:19:25.244256","MEAN_MOTION":"13.21810924","ECCENTRICITY":"0.00019630","INCLINATION":"87.9206","RA_OF_ASC_NODE":"5.6310","ARG_OF_PERICENTER":"82.0981","MEAN_ANOMALY":"278.0376","EPHEMERIS_TYPE":"0","CLASSIFICATION_TYPE":"U","NORAD_CAT_ID":"44060","ELEMENT_SET_NO":"999","REV_AT_EPOCH":"4236","BSTAR":"-0.00009362300000","MEAN_MOTION_DOT":"-0.00000026","MEAN_MOTION_DDOT":"0.0000000000000","SEMIMAJOR_AXIS":"7555.947","PERIOD":"108.941","APOAPSIS":"1179.296","PERIAPSIS":"1176.329","OBJECT_TYPE":"PAYLOAD","RCS_SIZE":"LARGE","COUNTRY_CODE":"UK","LAUNCH_DATE":"2019-02-27","SITE":"FRGUI","DECAY_DATE":null,"FILE":"2682812","GP_ID":"146656956","TLE_LINE0":"0 ONEWEB-0007","TLE_LINE1":"1 44060U 19010D   20012.80515329 -.00000026  00000-0 -93623-4 0  9990","TLE_LINE2":"2 44060  87.9206   5.6310 0001963  82.0981 278.0376 13.21810924 42369"},{"CCSDS_OMM_VERS":"2.0","COMMENT":"GENERATED VIA SPACE-TRACK.ORG API","CREATION_DATE":"2020-01-14T04:47:54","ORIGINATOR":"18 SPCS","OBJECT_NAME":"ONEWEB-0007","OBJECT_ID":"2019-010D","CENTER_NAME":"EARTH","REF_FRAME":"TEME","TIME_SYSTEM":"UTC","MEAN_ELEMENT_THEORY":"SGP4","EPOCH":"2020-01-13T18:56:28.439520","MEAN_MOTION":"13.21810887","ECCENTRICITY":"0.00019580","INCLINATION":"87.9208","RA_OF_ASC_NODE":"5.4345","ARG_OF_PERICENTER":"81.7193","MEAN_ANOMALY":"278.4163","EPHEMERIS_TYPE":"0","CLASSIFICATION_TYPE":"U","NORAD_CAT_ID":"44060","ELEMENT_SET_NO":"999","REV_AT_EPOCH":"4249","BSTAR":"-0.00002503900000","MEAN_MOTION_DOT":"0.00000003","MEAN_MOTION_DDOT":"0.0000000000000","SEMIMAJOR_AXIS":"7555.947","PERIOD":"108.941","APOAPSIS":"1179.292","PERIAPSIS":"1176.333","OBJECT_TYPE":"PAYLOAD","RCS_SIZE":"LARGE","COUNTRY_CODE":"UK","LAUNCH_DATE":"2019-02-27","SITE":"FRGUI","DECAY_DATE":null,"FILE":"2683577","GP_ID":"146729581","TLE_LINE0":"0 ONEWEB-0007","TLE_LINE1":"1 44060U 19010D   20013.78921805 +.00000003 +00000-0 -25039-4 0  9998","TLE_LINE2":"2 44060 087.9208 005.4345 0001958 081.7193 278.4163 13.21810887042492"},{"CCSDS_OMM_VERS":"2.0","COMMENT":"GENERATED VIA SPACE-TRACK.ORG API","CREATION_DATE":"2020-01-15T04:33:10","ORIGINATOR":"18 SPCS","OBJECT_NAME":"ONEWEB-0007","OBJECT_ID":"2019-010D","CENTER_NAME":"EARTH","REF_FRAME":"TEME","TIME_SYSTEM":"UTC","MEAN_ELEMENT_THEORY":"SGP4","EPOCH":"2020-01-14T22:11:32.127360","MEAN_MOTION":"13.21810927","ECCENTRICITY":"0.00019490","INCLINATION":"87.9208","RA_OF_ASC_NODE":"5.2077","ARG_OF_PERICENTER":"81.3116","MEAN_ANOMALY":"278.8239","EPHEMERIS_TYPE":"0","CLASSIFICATION_TYPE":"U","NORAD_CAT_ID":"44060","ELEMENT_SET_NO":"999","REV_AT_EPOCH":"4264","BSTAR":"0.00008281000000","MEAN_MOTION_DOT":"0.00000047","MEAN_MOTION_DDOT":"0.0000000000000","SEMIMAJOR_AXIS":"7555.947","PERIOD":"108.941","APOAPSIS":"1179.285","PERIAPSIS":"1176.340","OBJECT_TYPE":"PAYLOAD","RCS_SIZE":"LARGE","COUNTRY_CODE":"UK","LAUNCH_DATE":"2019-02-27","SITE":"FRGUI","DECAY_DATE":null,"FILE":"2684153","GP_ID":"146800575","TLE_LINE0":"0 ONEWEB-0007","TLE_LINE1":"1 44060U 19010D   20014.92467740 +.00000047 +00000-0 +82810-4 0  9995","TLE_LINE2":"2 44060 087.9208 005.2077 0001949 081.3116 278.8239 13.21810927042643"},{"CCSDS_OMM_VERS":"2.0","COMMENT":"GENERATED VIA SPACE-TRACK.ORG API","CREATION_DATE":"2020-01-15T21:44:10","ORIGINATOR":"18 SPCS","OBJECT_NAME":"ONEWEB-0007","OBJECT_ID":"2019-010D","CENTER_NAME":"EARTH","REF_FRAME":"TEME","TIME_SYSTEM":"UTC","MEAN_ELEMENT_THEORY":"SGP4","EPOCH":"2020-01-15T10:54:33.839712","MEAN_MOTION":"13.21810958","ECCENTRICITY":"0.00019460","INCLINATION":"87.9209","RA_OF_ASC_NODE":"5.1019","ARG_OF_PERICENTER":"81.1821","MEAN_ANOMALY":"278.9533","EPHEMERIS_TYPE":"0","CLASSIFICATION_TYPE":"U","NORAD_CAT_ID":"44060","ELEMENT_SET_NO":"999","REV_AT_EPOCH":"4271","BSTAR":"0.00010638000000","MEAN_MOTION_DOT":"0.00000057","MEAN_MOTION_DDOT":"0.0000000000000","SEMIMAJOR_AXIS":"7555.947","PERIOD":"108.941","APOAPSIS":"1179.283","PERIAPSIS":"1176.342","OBJECT_TYPE":"PAYLOAD","RCS_SIZE":"LARGE","COUNTRY_CODE":"UK","LAUNCH_DATE":"2019-02-27","SITE":"FRGUI","DECAY_DATE":null,"FILE":"2684543","GP_ID":"146827632","TLE_LINE0":"0 ONEWEB-0007","TLE_LINE1":"1 44060U 19010D   20015.45455833 +.00000057 +00000-0 +10638-3 0  9993","TLE_LINE2":"2 44060 087.9209 005.1019 0001946 081.1821 278.9533 13.21810958042717"},{"CCSDS_OMM_VERS":"2.0","COMMENT":"GENERATED VIA SPACE-TRACK.ORG API","CREATION_DATE":"2020-01-16T21:27:20","ORIGINATOR":"18 SPCS","OBJECT_NAME":"ONEWEB-0007","OBJECT_ID":"2019-010D","CENTER_NAME":"EARTH","REF_FRAME":"TEME","TIME_SYSTEM":"UTC","MEAN_ELEMENT_THEORY":"SGP4","EPOCH":"2020-01-16T05:04:36.270624","MEAN_MOTION":"13.21811006","ECCENTRICITY":"0.00019420","INCLINATION":"87.9209","RA_OF_ASC_NODE":"4.9507","ARG_OF_PERICENTER":"80.8652","MEAN_ANOMALY":"279.2702","EPHEMERIS_TYPE":"0","CLASSIFICATION_TYPE":"U","NORAD_CAT_ID":"44060","ELEMENT_SET_NO":"999","REV_AT_EPOCH":"4281","BSTAR":"0.00009030500000","MEAN_MOTION_DOT":"0.00000050","MEAN_MOTION_DDOT":"0.0000000000000","SEMIMAJOR_AXIS":"7555.947","PERIOD":"108.941","APOAPSIS":"1179.279","PERIAPSIS":"1176.345","OBJECT_TYPE":"PAYLOAD","RCS_SIZE":"LARGE","COUNTRY_CODE":"UK","LAUNCH_DATE":"2019-02-27","SITE":"FRGUI","DECAY_DATE":null,"FILE":"2685134","GP_ID":"146859805","TLE_LINE0":"0 ONEWEB-0007","TLE_LINE1":"1 44060U 19010D   20016.21153091 +.00000050 +00000-0 +90305-4 0  9992","TLE_LINE2":"2 44060 087.9209 004.9507 0001942 080.8652 279.2702 13.21811006042818"},{"CCSDS_OMM_VERS":"2.0","COMMENT":"GENERATED VIA SPACE-TRACK.ORG API","CREATION_DATE":"2020-01-17T01:56:47","ORIGINATOR":"18 SPCS","OBJECT_NAME":"ONEWEB-0007","OBJECT_ID":"2019-010D","CENTER_NAME":"EARTH","REF_FRAME":"TEME","TIME_SYSTEM":"UTC","MEAN_ELEMENT_THEORY":"SGP4","EPOCH":"2020-01-16T10:31:36.995232","MEAN_MOTION":"13.21811040","ECCENTRICITY":"0.00019370","INCLINATION":"87.9210","RA_OF_ASC_NODE":"4.9053","ARG_OF_PERICENTER":"80.8136","MEAN_ANOMALY":"279.3217","EPHEMERIS_TYPE":"0","CLASSIFICATION_TYPE":"U","NORAD_CAT_ID":"44060","ELEMENT_SET_NO":"999","REV_AT_EPOCH":"4284","BSTAR":"0.00007906800000","MEAN_MOTION_DOT":"0.00000046","MEAN_MOTION_DDOT":"0.0000000000000","SEMIMAJOR_AXIS":"7555.947","PERIOD":"108.941","APOAPSIS":"1179.275","PERIAPSIS":"1176.348","OBJECT_TYPE":"PAYLOAD","RCS_SIZE":"LARGE","COUNTRY_CODE":"UK","LAUNCH_DATE":"2019-02-27","SITE":"FRGUI","DECAY_DATE":null,"FILE":"2685238","GP_ID":"146881325","TLE_LINE0":"0 ONEWEB-0007","TLE_LINE1":"1 44060U 19010D   20016.43862263 +.00000046 +00000-0 +79068-4 0  9992","TLE_LINE2":"2 44060 087.9210 004.9053 0001937 080.8136 279.3217 13.21811040042840"},{"CCSDS_OMM_VERS":"2.0","COMMENT":"GENERATED VIA SPACE-TRACK.ORG API","CREATION_DATE":"2020-01-16T22:30:17","ORIGINATOR":"18 SPCS","OBJECT_NAME":"ONEWEB-0007","OBJECT_ID":"2019-010D","CENTER_NAME":"EARTH","REF_FRAME":"TEME","TIME_SYSTEM":"UTC","MEAN_ELEMENT_THEORY":"SGP4","EPOCH":"2020-01-16T19:36:38.203776","MEAN_MOTION":"13.21811067","ECCENTRICITY":"0.00019350","INCLINATION":"87.9210","RA_OF_ASC_NODE":"4.8298","ARG_OF_PERICENTER":"80.6858","MEAN_ANOMALY":"279.4494","EPHEMERIS_TYPE":"0","CLASSIFICATION_TYPE":"U","NORAD_CAT_ID":"44060","ELEMENT_SET_NO":"999","REV_AT_EPOCH":"4289","BSTAR":"0.00005711500000","MEAN_MOTION_DOT":"0.00000037","MEAN_MOTION_DDOT":"0.0000000000000","SEMIMAJOR_AXIS":"7555.947","PERIOD":"108.941","APOAPSIS":"1179.274","PERIAPSIS":"1176.350","OBJECT_TYPE":"PAYLOAD","RCS_SIZE":"LARGE","COUNTRY_CODE":"UK","LAUNCH_DATE":"2019-02-27","SITE":"FRGUI","DECAY_DATE":null,"FILE":"2685156","GP_ID":"146861121","TLE_LINE0":"0 ONEWEB-0007","TLE_LINE1":"1 44060U 19010D   20016.81710884  .00000037  00000-0  57115-4 0  9994","TLE_LINE2":"2 44060  87.9210   4.8298 0001935  80.6858 279.4494 13.21811067 42899"},{"CCSDS_OMM_VERS":"2.0","COMMENT":"GENERATED VIA SPACE-TRACK.ORG API","CREATION_DATE":"2020-01-17T17:14:20","ORIGINATOR":"18 SPCS","OBJECT_NAME":"ONEWEB-0007","OBJECT_ID":"2019-010D","CENTER_NAME":"EARTH","REF_FRAME":"TEME","TIME_SYSTEM":"UTC","MEAN_ELEMENT_THEORY":"SGP4","EPOCH":"2020-01-17T06:30:39.654720","MEAN_MOTION":"13.21811077","ECCENTRICITY":"0.00019320","INCLINATION":"87.9211","RA_OF_ASC_NODE":"4.7391","ARG_OF_PERICENTER":"80.5271","MEAN_ANOMALY":"279.6081","EPHEMERIS_TYPE":"0","CLASSIFICATION_TYPE":"U","NORAD_CAT_ID":"44060","ELEMENT_SET_NO":"999","REV_AT_EPOCH":"4295","BSTAR":"0.00002176100000","MEAN_MOTION_DOT":"0.00000022","MEAN_MOTION_DDOT":"0.0000000000000","SEMIMAJOR_AXIS":"7555.947","PERIOD":"108.941","APOAPSIS":"1179.272","PERIAPSIS":"1176.352","OBJECT_TYPE":"PAYLOAD","RCS_SIZE":"LARGE","COUNTRY_CODE":"UK","LAUNCH_DATE":"2019-02-27","SITE":"FRGUI","DECAY_DATE":null,"FILE":"2685637","GP_ID":"146909673","TLE_LINE0":"0 ONEWEB-0007","TLE_LINE1":"1 44060U 19010D   20017.27129230 +.00000022 +00000-0 +21761-4 0  9996","TLE_LINE2":"2 44060 087.9211 004.7391 0001932 080.5271 279.6081 13.21811077042950"}]